BEIDOU-2 IGSO-1 (C06)   
1 36828U 10036A   24165.45487448 -.00000052  00000+0  00000+0 0  9995
2 36828  54.2524 169.5958 0041988 207.2132 156.6207  1.00284099 50859
BEIDOU-2 G4 (C04)       
1 37210U 10057A   24167.82726689 -.00000095  00000+0  00000+0 0  9997
2 37210   1.8420  68.8013 0003140 163.5121 130.1651  1.00271566 49955
BEIDOU-2 IGSO-2 (C07)   
1 37256U 10068A   24167.24756483 -.00000213  00000+0  00000+0 0  9992
2 37256  48.8829 280.8464 0035674 209.6922 327.6494  1.00251114 49453
BEIDOU-2 IGSO-3 (C08)   
1 37384U 11013A   24167.60183211 -.00000196  00000+0  00000+0 0  9998
2 37384  61.3485  47.1259 0026529 175.2232   5.4571  1.00259497 48324
BEIDOU-2 IGSO-4 (C09)   
1 37763U 11038A   24166.45070684  .00000051  00000+0  00000+0 0  9996
2 37763  54.5582 172.1974 0125705 229.0649 118.8017  1.00260188 47294
BEIDOU-2 IGSO-5 (C10)   
1 37948U 11073A   24166.76979897 -.00000205  00000+0  00000+0 0  9990
2 37948  49.0160 280.5386 0100425 220.0716 133.2970  1.00294662 45784
BEIDOU-2 G5 (C05)       
1 38091U 12008A   24167.87063229  .00000074  00000+0  00000+0 0  9998
2 38091   2.0729  70.8769 0005599 272.4397 293.3835  1.00270843 45032
BEIDOU-2 M3 (C11)       
1 38250U 12018A   24167.85887372 -.00000084  00000+0  00000+0 0  9999
2 38250  56.3398 329.3858 0020877 262.4497  97.3104  1.86231412 82327
BEIDOU-2 M4 (C12)       
1 38251U 12018B   24167.25212700 -.00000085  00000+0  00000+0 0  9992
2 38251  56.2474 328.6777 0011741 264.1221  95.7411  1.86232135 82661
BEIDOU-2 M6 (C14)       
1 38775U 12050B   24167.49858230 -.00000043  00000+0  00000+0 0  9993
2 38775  55.9116  87.2194 0013995 339.6437  20.2967  1.86231242 79687
BEIDOU-2 G6 (C02)       
1 38953U 12059A   24167.86507812 -.00000160  00000+0  00000+0 0  9998
2 38953   2.5566  80.5203 0009912 317.0372 262.5595  1.00273255 42573
BEIDOU-3S IGSO-1S (C31) 
1 40549U 15019A   24167.86507812 -.00000163  00000+0  00000+0 0  9994
2 40549  50.5770 304.2070 0038366 192.1199 170.0969  1.00251304 33736
BEIDOU-3S M2S (C58)     
1 40748U 15037A   24167.45237582 -.00000087  00000+0  00000+0 0  9999
2 40748  55.4792 327.0930 0008421 247.5985 112.3082  1.86233341 60493
BEIDOU-3S M1S (C57)     
1 40749U 15037B   24166.11191948 -.00000088  00000+0  00000+0 0  9998
2 40749  55.4832 327.1255 0003385   1.5039 358.4925  1.86233104 60476
BEIDOU-3S IGSO-2S (C56) 
1 40938U 15053A   24166.74103653 -.00000151  00000+0  00000+0 0  9992
2 40938  50.3612 267.4348 0052561 190.0238 168.3884  1.00263330 32000
BEIDOU-2 IGSO-6 (C13)   
1 41434U 16021A   24166.42849341 -.00000173  00000+0  00000+0 0  9990
2 41434  59.1726  45.3748 0047867 222.9947 244.9586  1.00272026 30131
BEIDOU-2 G7 (C03)       
1 41586U 16037A   24167.88889194 -.00000338  00000+0  00000+0 0  9999
2 41586   1.9039  69.6589 0009219   3.5510 261.9341  1.00276197 29455
BEIDOU-3 M1 (C19)       
1 43001U 17069A   24167.26461791 -.00000041  00000+0  00000+0 0  9991
2 43001  56.0619  87.3237 0010834 309.1204  50.7797  1.86231674 44979
BEIDOU-3 M2 (C20)       
1 43002U 17069B   24167.20185573 -.00000041  00000+0  00000+0 0  9997
2 43002  56.0610  87.3616 0009122 332.0961  27.8514  1.86231111 44962
BEIDOU-3 M7 (C27)       
1 43107U 18003A   24167.48793833 -.00000088  00000+0  00000+0 0  9997
2 43107  54.9372 327.6834 0004809  77.0854 282.9649  1.86232655 43737
BEIDOU-3 M8 (C28)       
1 43108U 18003B   24166.89140132 -.00000089  00000+0  00000+0 0  9991
2 43108  54.9306 327.6895 0002592 252.4284 107.5397  1.86231099 43727
BEIDOU-3 M4 (C22)       
1 43207U 18018A   24166.25879353 -.00000037  00000+0  00000+0 0  9994
2 43207  56.0201  87.4462 0006996 356.7173   3.2750  1.86231592 43095
BEIDOU-3 M3 (C21)       
1 43208U 18018B   24166.32537847 -.00000037  00000+0  00000+0 0  9992
2 43208  56.0195  87.4484 0008915 321.6214  38.3121  1.86231504 43096
BEIDOU-3 M9 (C29)       
1 43245U 18029A   24167.08358375 -.00000088  00000+0  00000+0 0  9992
2 43245  54.8210 325.4053 0000617 132.2805 227.7197  1.86232952 42264
BEIDOU-3 M10 (C30)      
1 43246U 18029B   24167.55021154 -.00000088  00000+0  00000+0 0  9997
2 43246  54.8179 325.4172 0003676  23.0800 336.9314  1.86233099 42257
BEIDOU-2 IGSO-7 (C16)   
1 43539U 18057A   24164.92966112 -.00000058  00000+0  00000+0 0  9990
2 43539  55.1416 169.4046 0075418 233.7146 304.1845  1.00254656 21770
BEIDOU-3 M5 (C23)       
1 43581U 18062A   24167.23629172  .00000067  00000+0  00000+0 0  9991
2 43581  54.1324 207.2006 0005260 274.6961  85.3182  1.86228924 40000
BEIDOU-3 M6 (C24)       
1 43582U 18062B   24166.02826321  .00000048  00000+0  00000+0 0  9992
2 43582  54.1321 207.2311 0004188 358.2042   1.8654  1.86229757 39981
BEIDOU-3 M12 (C26)      
1 43602U 18067A   24167.57248348  .00000075  00000+0  00000+0 0  9998
2 43602  54.2227 205.8597 0006647  18.1056 341.9929  1.86231824 39496
BEIDOU-3 M11 (C25)      
1 43603U 18067B   24167.70642886  .00000077  00000+0  00000+0 0  9991
2 43603  54.2199 205.8202 0003659 359.9661   0.1092  1.86231710 39529
BEIDOU-3 M13 (C32)      
1 43622U 18072A   24167.13042026 -.00000042  00000+0  00000+0 0  9998
2 43622  55.9915  86.9484 0007404 309.4684  50.4631  1.86231625 39028
BEIDOU-3 M14 (C33)      
1 43623U 18072B   24166.99587640 -.00000041  00000+0  00000+0 0  9997
2 43623  55.9932  86.9460 0005743 336.6946  23.2764  1.86231634 39013
BEIDOU-3 M16 (C35)      
1 43647U 18078A   24166.08469236 -.00000089  00000+0  00000+0 0  9991
2 43647  54.7180 325.5387 0007105  24.5797 335.4486  1.86232416 38503
BEIDOU-3 M15 (C34)      
1 43648U 18078B   24167.82471949 -.00000088  00000+0  00000+0 0  9998
2 43648  54.7124 325.4815 0004239  40.7471 319.2795  1.86232426 38550
BEIDOU-3 G1 (C59)       
1 43683U 18085A   24167.89480948 -.00000260  00000+0  00000+0 0  9993
2 43683   2.1886 109.6280 0003943 348.6911 268.4769  1.00275165 20728
BEIDOU-3 M17 (C36)      
1 43706U 18093A   24164.75329132  .00000031  00000+0  00000+0 0  9992
2 43706  54.2155 207.2231 0010120 279.5987  80.3570  1.86228571 37869
BEIDOU-3 M18 (C37)      
1 43707U 18093B   24166.22952808  .00000051  00000+0  00000+0 0  9991
2 43707  54.2161 207.1648 0007980 304.6259  55.3704  1.86230058 37886
BEIDOU-3 IGSO-1 (C38)   
1 44204U 19023A   24165.63059397 -.00000228  00000+0  00000+0 0  9990
2 44204  57.6368  45.2600 0018827 209.9839 349.8142  1.00251025 18987
BEIDOU-2 G8 (C01)       
1 44231U 19027A   24167.89567972 -.00000231  00000+0  00000+0 0  9991
2 44231   1.9455  73.9104 0002294 158.6774 138.9279  1.00276888 18748
BEIDOU-3 IGSO-2 (C39)   
1 44337U 19035A   24166.45714667 -.00000051  00000+0  00000+0 0  9993
2 44337  55.1786 165.2918 0035363 205.2004 173.0873  1.00298672 18328
BEIDOU-3 M24 (C46)      
1 44542U 19061A   24167.37303857  .00000069  00000+0  00000+0 0  9995
2 44542  54.4431 207.4201 0007604 342.3427  17.7061  1.86231408 32167
BEIDOU-3 M23 (C45)      
1 44543U 19061B   24167.82922282  .00000077  00000+0  00000+0 0  9994
2 44543  54.4413 207.3737 0005280 321.2761 256.8927  1.86231854 32179
BEIDOU-3 IGSO-3 (C40)   
1 44709U 19073A   24167.74504333 -.00000212  00000+0  00000+0 0  9997
2 44709  56.0528 288.7421 0039003 181.6868 178.2704  1.00249960 17106
BEIDOU-3 M22 (C44)      
1 44793U 19078A   24163.99712204 -.00000092  00000+0  00000+0 0  9992
2 44793  54.5674 325.5435 0006199  33.4580 326.5722  1.86232349 30957
BEIDOU-3 M21 (C43)      
1 44794U 19078B   24167.34861664 -.00000089  00000+0  00000+0 0  9997
2 44794  54.5387 325.4034 0003959  32.5673 327.4520  1.86232818 31023
BEIDOU-3 M19 (C41)      
1 44864U 19090A   24167.37908934 -.00000042  00000+0  00000+0 0  9993
2 44864  55.9260  87.1115 0018028 285.4414 287.8517  1.86231951 30608
BEIDOU-3 M20 (C42)      
1 44865U 19090B   24167.07547323 -.00000041  00000+0  00000+0 0  9991
2 44865  55.9276  87.1551 0016090 298.7843 160.6822  1.86231860 30583
BEIDOU-3 G2 (C60)       
1 45344U 20017A   24167.88288737 -.00000126  00000+0  00000+0 0  9999
2 45344   2.3140  29.6009 0001385 101.5336 171.3884  1.00271952 15920
BEIDOU-3 G3 (C61)       
1 45807U 20040A   24167.89979491 -.00000337  00000+0  00000+0 0  9998
2 45807   0.7750  42.2152 0005145 284.6302  12.3256  1.00272589 14739
BEIDOU-3 G4             
1 56564U 23066A   24167.89493676 -.00000094  00000+0  00000+0 0  9997
2 56564   2.1260 288.2138 0005640 199.5476 259.0836  1.00271111  4064
BEIDOU-3 M25            
1 58654U 23207A   24165.82051444 -.00000037  00000+0  00000+0 0  9997
2 58654  55.1077  87.1818 0003345 308.6633  51.3037  1.86232427  3188
BEIDOU-3 M26            
1 58655U 23207B   24167.23031784 -.00000042  00000+0  00000+0 0  9996
2 58655  55.1107  87.1191 0003588 284.6423  75.3140  1.86232070  3192
